{
  "type": "FeatureCollection",
  "features": [
    {
      "type": "Feature",
      "properties": {
        "norad_id": 33913,
        "name": "COSMOS 2251 DEB",
        "group": "cosmos-2251-debris",
        "lat": 41.03793382462237,
        "lon": -32.64684107227126,
        "alt_km": 746.4938404803515,
        "timestamp": "2025-12-24T09:46:31.397803+00:00",
        "meta_object_name": "COSMOS 2251 DEB",
        "meta_object_id": "1993-036DS",
        "meta_epoch": "2025-12-23T11:54:02.602080",
        "meta_mean_motion": 14.48527536,
        "meta_eccentricity": 0.00481616,
        "meta_inclination": 74.0323,
        "meta_ra_of_asc_node": 163.4923,
        "meta_arg_of_pericenter": 264.0515,
        "meta_mean_anomaly": 162.2664,
        "meta_ephemeris_type": 0,
        "meta_classification_type": "U",
        "meta_norad_cat_id": 33913,
        "meta_element_set_no": 999,
        "meta_rev_at_epoch": 88613,
        "meta_bstar": 0.00051590174,
        "meta_mean_motion_dot": 1.937e-05,
        "meta_mean_motion_ddot": 0,
        "tle_line1": "1 33913U 93036DS  25357.49586345  .00001937  00000+0  51590-3 0  9998",
        "tle_line2": "2 33913  74.0323 163.4923 0048161 264.0515 162.2664 14.48527536886139"
      },
      "geometry": {
        "type": "Point",
        "coordinates": [
          -32.64684107227126,
          41.03793382462237
        ]
      }
    },
    {
      "type": "Feature",
      "properties": {
        "norad_id": 33914,
        "name": "COSMOS 2251 DEB",
        "group": "cosmos-2251-debris",
        "lat": 43.277867923424864,
        "lon": 160.2885399811062,
        "alt_km": 812.0922549928464,
        "timestamp": "2025-12-24T09:46:31.397814+00:00",
        "meta_object_name": "COSMOS 2251 DEB",
        "meta_object_id": "1993-036DT",
        "meta_epoch": "2025-12-24T04:16:03.471744",
        "meta_mean_motion": 13.71991415,
        "meta_eccentricity": 0.0300793,
        "meta_inclination": 74.0912,
        "meta_ra_of_asc_node": 356.2445,
        "meta_arg_of_pericenter": 96.5112,
        "meta_mean_anomaly": 342.7852,
        "meta_ephemeris_type": 0,
        "meta_classification_type": "U",
        "meta_norad_cat_id": 33914,
        "meta_element_set_no": 999,
        "meta_rev_at_epoch": 84238,
        "meta_bstar": 0.00024756,
        "meta_mean_motion_dot": 2.91e-06,
        "meta_mean_motion_ddot": 0,
        "tle_line1": "1 33914U 93036DT  25358.17781796  .00000291  00000+0  24756-3 0  9998",
        "tle_line2": "2 33914  74.0912 356.2445 0300793  96.5112 342.7852 13.71991415842387"
      },
      "geometry": {
        "type": "Point",
        "coordinates": [
          160.2885399811062,
          43.277867923424864
        ]
      }
    },
    {
      "type": "Feature",
      "properties": {
        "norad_id": 33915,
        "name": "COSMOS 2251 DEB",
        "group": "cosmos-2251-debris",
        "lat": 20.15126039591532,
        "lon": 18.75068555845978,
        "alt_km": 762.0043793536015,
        "timestamp": "2025-12-24T09:46:31.397824+00:00",
        "meta_object_name": "COSMOS 2251 DEB",
        "meta_object_id": "1993-036DU",
        "meta_epoch": "2025-12-24T03:16:12.007776",
        "meta_mean_motion": 14.35106924,
        "meta_eccentricity": 0.0104003,
        "meta_inclination": 74.043,
        "meta_ra_of_asc_node": 13.2204,
        "meta_arg_of_pericenter": 102.6789,
        "meta_mean_anomaly": 319.7721,
        "meta_ephemeris_type": 0,
        "meta_classification_type": "U",
        "meta_norad_cat_id": 33915,
        "meta_element_set_no": 999,
        "meta_rev_at_epoch": 87921,
        "meta_bstar": 0.00032527,
        "meta_mean_motion_dot": 9.61e-06,
        "meta_mean_motion_ddot": 0,
        "tle_line1": "1 33915U 93036DU  25358.13625009  .00000961  00000+0  32527-3 0  9998",
        "tle_line2": "2 33915  74.0430  13.2204 0104003 102.6789 319.7721 14.35106924879216"
      },
      "geometry": {
        "type": "Point",
        "coordinates": [
          18.75068555845978,
          20.15126039591532
        ]
      }
    },
    {
      "type": "Feature",
      "properties": {
        "norad_id": 33916,
        "name": "COSMOS 2251 DEB",
        "group": "cosmos-2251-debris",
        "lat": -71.44016437428694,
        "lon": -100.19362649776195,
        "alt_km": 920.0017624095544,
        "timestamp": "2025-12-24T09:46:31.397835+00:00",
        "meta_object_name": "COSMOS 2251 DEB",
        "meta_object_id": "1993-036DV",
        "meta_epoch": "2025-12-24T01:39:24.967872",
        "meta_mean_motion": 13.68625176,
        "meta_eccentricity": 0.0324834,
        "meta_inclination": 74.0519,
        "meta_ra_of_asc_node": 21.9731,
        "meta_arg_of_pericenter": 191.6892,
        "meta_mean_anomaly": 199.1974,
        "meta_ephemeris_type": 0,
        "meta_classification_type": "U",
        "meta_norad_cat_id": 33916,
        "meta_element_set_no": 999,
        "meta_rev_at_epoch": 84046,
        "meta_bstar": 0.00030648,
        "meta_mean_motion_dot": 3.58e-06,
        "meta_mean_motion_ddot": 0,
        "tle_line1": "1 33916U 93036DV  25358.06903898  .00000358  00000+0  30648-3 0  9998",
        "tle_line2": "2 33916  74.0519  21.9731 0324834 191.6892 199.1974 13.68625176840460"
      },
      "geometry": {
        "type": "Point",
        "coordinates": [
          -100.19362649776195,
          -71.44016437428694
        ]
      }
    },
    {
      "type": "Feature",
      "properties": {
        "norad_id": 33917,
        "name": "COSMOS 2251 DEB",
        "group": "cosmos-2251-debris",
        "lat": 5.074460679192105,
        "lon": 104.71243983540477,
        "alt_km": 1237.6070883966977,
        "timestamp": "2025-12-24T09:46:31.397845+00:00",
        "meta_object_name": "COSMOS 2251 DEB",
        "meta_object_id": "1993-036DW",
        "meta_epoch": "2025-12-24T00:58:53.207904",
        "meta_mean_motion": 13.69383777,
        "meta_eccentricity": 0.0331176,
        "meta_inclination": 74.1073,
        "meta_ra_of_asc_node": 103.8634,
        "meta_arg_of_pericenter": 202.3577,
        "meta_mean_anomaly": 156.2823,
        "meta_ephemeris_type": 0,
        "meta_classification_type": "U",
        "meta_norad_cat_id": 33917,
        "meta_element_set_no": 999,
        "meta_rev_at_epoch": 83888,
        "meta_bstar": 0.00089839,
        "meta_mean_motion_dot": 1.126e-05,
        "meta_mean_motion_ddot": 0,
        "tle_line1": "1 33917U 93036DW  25358.04089361  .00001126  00000+0  89839-3 0  9997",
        "tle_line2": "2 33917  74.1073 103.8634 0331176 202.3577 156.2823 13.69383777838885"
      },
      "geometry": {
        "type": "Point",
        "coordinates": [
          104.71243983540477,
          5.074460679192105
        ]
      }
    },
    {
      "type": "Feature",
      "properties": {
        "norad_id": 33920,
        "name": "COSMOS 2251 DEB",
        "group": "cosmos-2251-debris",
        "lat": -38.77294455762788,
        "lon": 109.52567574959734,
        "alt_km": 691.001012155175,
        "timestamp": "2025-12-24T09:46:31.397856+00:00",
        "meta_object_name": "COSMOS 2251 DEB",
        "meta_object_id": "1993-036DZ",
        "meta_epoch": "2025-12-23T01:29:04.163136",
        "meta_mean_motion": 14.58425135,
        "meta_eccentricity": 0.00378205,
        "meta_inclination": 74.0612,
        "meta_ra_of_asc_node": 278.8111,
        "meta_arg_of_pericenter": 283.8425,
        "meta_mean_anomaly": 75.8533,
        "meta_ephemeris_type": 0,
        "meta_classification_type": "U",
        "meta_norad_cat_id": 33920,
        "meta_element_set_no": 999,
        "meta_rev_at_epoch": 88265,
        "meta_bstar": 0.001742781,
        "meta_mean_motion_dot": 8.141e-05,
        "meta_mean_motion_ddot": 0,
        "tle_line1": "1 33920U 93036DZ  25357.06185374  .00008141  00000+0  17428-2 0  9991",
        "tle_line2": "2 33920  74.0612 278.8111 0037820 283.8425  75.8533 14.58425135882657"
      },
      "geometry": {
        "type": "Point",
        "coordinates": [
          109.52567574959734,
          -38.77294455762788
        ]
      }
    },
    {
      "type": "Feature",
      "properties": {
        "norad_id": 33922,
        "name": "COSMOS 2251 DEB",
        "group": "cosmos-2251-debris",
        "lat": -7.52703236722684,
        "lon": 123.72022997097145,
        "alt_km": 738.1206166768307,
        "timestamp": "2025-12-24T09:46:31.397866+00:00",
        "meta_object_name": "COSMOS 2251 DEB",
        "meta_object_id": "1993-036EB",
        "meta_epoch": "2025-12-24T02:03:12.256128",
        "meta_mean_motion": 14.4954789,
        "meta_eccentricity": 0.0023131,
        "meta_inclination": 74.0469,
        "meta_ra_of_asc_node": 126.4894,
        "meta_arg_of_pericenter": 235.9235,
        "meta_mean_anomaly": 237.8017,
        "meta_ephemeris_type": 0,
        "meta_classification_type": "U",
        "meta_norad_cat_id": 33922,
        "meta_element_set_no": 999,
        "meta_rev_at_epoch": 88742,
        "meta_bstar": 0.00049624,
        "meta_mean_motion_dot": 1.883e-05,
        "meta_mean_motion_ddot": 0,
        "tle_line1": "1 33922U 93036EB  25358.08555852  .00001883  00000+0  49624-3 0  9998",
        "tle_line2": "2 33922  74.0469 126.4894 0023131 235.9235 237.8017 14.49547890887422"
      },
      "geometry": {
        "type": "Point",
        "coordinates": [
          123.72022997097145,
          -7.52703236722684
        ]
      }
    }
  ]
}